STARLINK-31121          
1 58685U 23211U   26068.45914014 -.00018096  00000+0 -64837-3 0  9997
2 58685  42.9995  86.2025 0001102 209.0829 150.9962 15.27644877122434
OTTER                   
1 62623U 25009Q   26068.72300813  .00012198  00000+0  45151-3 0  9990
2 62623  97.4065 151.3812 0003573 310.7710  49.3219 15.27809545 63722
